NORAD_CAT_ID,OBJECT_NAME,OBJECT_TYPE,EPOCH,MEAN_MOTION,ECCENTRICITY,INCLINATION,RA_OF_ASC_NODE,ARG_OF_PERICENTER,MEAN_ANOMALY,BSTAR,MEAN_MOTION_DOT,MEAN_MOTION_DDOT,TLE_LINE0,TLE_LINE1,TLE_LINE2,SEMIMAJOR_AXIS,PERIOD,APOGEE,PERIGEE,DECAYED
52471.0,STARLINK-3862,PAYLOAD,2024-05-12 11:29:07,15.08788444,0.0001183,53.2156,169.8738,127.4443,232.6657,-0.00035063,-5.856e-05,0.0,0 STARLINK-3862,1 52471U 22049W   24133.47856449 -.00005856  00000-0 -35063-3 0  9992,2 52471  53.2156 169.8738 0001183 127.4443 232.6657 15.08788444111679,6918.038,95.441,540.721,539.085,0.0
52471.0,STARLINK-3862,PAYLOAD,2024-05-12 19:26:03,15.08809949,7.97e-05,53.2157,168.3846,81.5614,278.5469,0.00014568,2.03e-05,0.0,0 STARLINK-3862,1 52471U 22049W   24133.80976722  .00002030  00000-0  14568-3 0  9992,2 52471  53.2157 168.3846 0000797  81.5614 278.5469 15.08809949111881,6917.972,95.439,540.389,539.286,0.0
52471.0,STARLINK-3862,PAYLOAD,2024-05-13 09:44:32,15.08827558,9.11e-05,53.2152,165.7071,77.194,282.9153,0.0008482,0.00013232,0.0,0 STARLINK-3862,1 52471U 22049W   24134.40593600  .00013232  00000-0  84820-3 0  9993,2 52471  53.2152 165.7071 0000911  77.1940 282.9153 15.08827558111816,6917.918,95.438,540.414,539.153,0.0
52471.0,STARLINK-3862,PAYLOAD,2024-05-14 11:10:42,15.0886822,9.07e-05,53.2153,160.9468,68.7258,291.3831,0.00081156,0.00012662,0.0,0 STARLINK-3862,1 52471U 22049W   24135.46576556  .00012662  00000-0  81156-3 0  9996,2 52471  53.2153 160.9468 0000907  68.7258 291.3831 15.08868220112131,6917.794,95.436,540.287,539.032,0.0
52471.0,STARLINK-3862,PAYLOAD,2024-05-14 19:07:36,15.08900477,8e-05,53.2167,159.4621,83.6955,276.4128,0.0015292,0.00024173,0.0,0 STARLINK-3862,1 52471U 22049W   24135.79694992  .00024173  00000-0  15292-2 0  9994,2 52471  53.2167 159.4621 0000800  83.6955 276.4128 15.08900477112181,6917.696,95.434,540.114,539.007,0.0
52471.0,STARLINK-3862,PAYLOAD,2024-05-15 11:01:24,15.08927858,0.0001096,53.2156,156.4892,68.0102,292.1006,0.0011246,0.00017698,0.0,0 STARLINK-3862,1 52471U 22049W   24136.45931607  .00017698  00000-0  11246-2 0  9994,2 52471  53.2156 156.4892 0001096  68.0102 292.1006 15.08927858112121,6917.612,95.432,540.235,538.719,0.0
52471.0,STARLINK-3862,PAYLOAD,2024-05-16 10:52:11,15.08853161,0.0001182,53.216,152.0278,90.9303,269.1825,-0.00061593,-0.0001008,0.0,0 STARLINK-3862,1 52471U 22049W   24137.45291319 -.00010080  00000-0 -61593-3 0  9995,2 52471  53.2160 152.0278 0001182  90.9303 269.1825 15.08853161112431,6917.84,95.437,540.523,538.887,0.0
52471.0,STARLINK-3862,PAYLOAD,2024-05-17 04:21:26,15.08835884,0.0001217,53.2167,148.7549,72.8674,287.2452,-0.00047948,-7.91e-05,0.0,0 STARLINK-3862,1 52471U 22049W   24138.18155760 -.00007910  00000-0 -47948-3 0  9991,2 52471  53.2167 148.7549 0001217  72.8674 287.2452 15.08835884112541,6917.893,95.438,540.6,538.916,0.0
52471.0,STARLINK-3862,PAYLOAD,2024-05-17 07:32:12,15.08835059,0.0001205,53.2166,148.1609,82.6579,277.455,-0.00037663,-6.276e-05,0.0,0 STARLINK-3862,1 52471U 22049W   24138.31403888 -.00006276  00000-0 -37663-3 0  9990,2 52471  53.2166 148.1609 0001205  82.6579 277.4550 15.08835059112400,6917.895,95.438,540.594,538.927,0.0
52471.0,STARLINK-3862,PAYLOAD,2024-05-17 17:04:32,15.08833186,0.0001176,53.2168,146.3766,83.0678,277.0448,-6.3004e-05,-1.29e-05,0.0,0 STARLINK-3862,1 52471U 22049W   24138.71148376 -.00001290  00000-0 -63004-4 0  9992,2 52471  53.2168 146.3766 0001176  83.0678 277.0448 15.08833186112465,6917.901,95.438,540.58,538.953,0.0
52471.0,STARLINK-3862,PAYLOAD,2024-05-18 07:23:00,15.08843481,0.0001161,53.2164,143.7021,96.0743,264.0382,0.00045588,6.976e-05,0.0,0 STARLINK-3862,1 52471U 22049W   24139.30764907  .00006976  00000-0  45588-3 0  9992,2 52471  53.2164 143.7021 0001161  96.0743 264.0382 15.08843481112717,6917.87,95.437,540.538,538.932,0.0
52471.0,STARLINK-3862,PAYLOAD,2024-05-18 16:55:19,15.08841345,0.0001156,53.216,141.9176,85.1722,274.9403,0.00031492,4.728e-05,0.0,0 STARLINK-3862,1 52471U 22049W   24139.70509051  .00004728  00000-0  31492-3 0  9995,2 52471  53.2160 141.9176 0001156  85.1722 274.9403 15.08841345112614,6917.876,95.437,540.541,538.942,0.0
52471.0,STARLINK-3862,PAYLOAD,2024-05-19 04:03:01,15.08838802,0.0001179,53.2156,139.8372,97.3402,262.7724,0.00013123,1.801e-05,0.0,0 STARLINK-3862,1 52471U 22049W   24140.16877115  .00001801  00000-0  13123-3 0  9996,2 52471  53.2156 139.8372 0001179  97.3402 262.7724 15.08838802112848,6917.884,95.438,540.565,538.933,0.0
52471.0,STARLINK-3862,PAYLOAD,2024-05-19 05:38:24,15.08839223,0.0001185,53.2156,139.5398,97.6546,262.4581,0.00017227,2.455e-05,0.0,0 STARLINK-3862,1 52471U 22049W   24140.23501134  .00002455  00000-0  17227-3 0  9994,2 52471  53.2156 139.5398 0001185  97.6546 262.4581 15.08839223112691,6917.883,95.438,540.568,538.928,0.0
52471.0,STARLINK-3862,PAYLOAD,2024-05-20 05:29:12,15.0883977,0.0001241,53.2152,135.0804,104.2788,255.8342,5.0144e-05,5.1e-06,0.0,0 STARLINK-3862,1 52471U 22049W   24141.22861122  .00000510  00000-0  50144-4 0  9996,2 52471  53.2152 135.0804 0001241 104.2788 255.8342 15.08839770113000,6917.881,95.438,540.605,538.888,0.0
52471.0,STARLINK-3862,PAYLOAD,2024-05-20 08:39:58,15.08840627,0.0001212,53.2153,134.4848,99.9018,260.2111,5.1356e-05,5.3e-06,0.0,0 STARLINK-3862,1 52471U 22049W   24141.36109147  .00000530  00000-0  51356-4 0  9991,2 52471  53.2153 134.4848 0001212  99.9018 260.2111 15.08840627112866,6917.878,95.438,540.582,538.905,0.0
52471.0,STARLINK-3862,PAYLOAD,2024-05-21 06:55:22,15.08840233,0.0001236,53.2169,130.3193,102.4287,257.6843,8.8215e-05,1.116e-05,0.0,0 STARLINK-3862,1 52471U 22049W   24142.28845427  .00001116  00000-0  88215-4 0  9996,2 52471  53.2169 130.3193 0001236 102.4287 257.6843 15.08840233113164,6917.88,95.438,540.6,538.89,0.0
52471.0,STARLINK-3862,PAYLOAD,2024-05-21 22:49:14,15.08838395,0.0001355,53.2174,127.347,88.2646,271.8501,8.2755e-05,1.029e-05,0.0,0 STARLINK-3862,1 52471U 22049W   24142.95085703  .00001029  00000-0  82755-4 0  9999,2 52471  53.2174 127.3470 0001355  88.2646 271.8501 15.08838395113105,6917.885,95.438,540.688,538.813,0.0
52471.0,STARLINK-3862,PAYLOAD,2024-05-22 05:10:46,15.08839741,0.0001365,53.2173,126.1575,87.3924,272.7224,8.9084e-05,1.13e-05,0.0,0 STARLINK-3862,1 52471U 22049W   24143.21581642  .00001130  00000-0  89084-4 0  9997,2 52471  53.2173 126.1575 0001365  87.3924 272.7224 15.08839741113149,6917.881,95.438,540.69,538.802,0.0
52471.0,STARLINK-3862,PAYLOAD,2024-05-23 05:01:33,15.08840344,0.0001424,53.217,121.6974,84.0224,276.093,9.0125e-05,1.147e-05,0.0,0 STARLINK-3862,1 52471U 22049W   24144.20941683  .00001147  00000-0  90125-4 0  9998,2 52471  53.2170 121.6974 0001424  84.0224 276.0930 15.08840344113458,6917.879,95.438,540.729,538.759,0.0
52471.0,STARLINK-3862,PAYLOAD,2024-05-24 04:52:20,15.08841827,0.0001523,53.2173,117.2372,89.7674,270.3492,8.7368e-05,1.103e-05,0.0,0 STARLINK-3862,1 52471U 22049W   24145.20301606  .00001103  00000-0  87368-4 0  9991,2 52471  53.2173 117.2372 0001523  89.7674 270.3492 15.08841827113441,6917.875,95.437,540.793,538.686,0.0
52471.0,STARLINK-3862,PAYLOAD,2024-05-24 22:21:35,15.08835885,0.0001655,53.2178,113.9673,99.4504,260.6676,4.2999e-05,3.96e-06,0.0,0 STARLINK-3862,1 52471U 22049W   24145.93166111  .00000396  00000-0  42999-4 0  9995,2 52471  53.2178 113.9673 0001655  99.4504 260.6676 15.08835885113554,6917.893,95.438,540.903,538.613,0.0
52471.0,STARLINK-3862,PAYLOAD,2024-05-25 04:43:08,15.08834075,0.0001622,53.218,112.777,104.5112,255.606,1.3745e-05,-6.9e-07,0.0,0 STARLINK-3862,1 52471U 22049W   24146.19662286 -.00000069  00000-0  13745-4 0  9993,2 52471  53.2180 112.7770 0001622 104.5112 255.6060 15.08834075113752,6917.898,95.438,540.886,538.641,0.0
52471.0,STARLINK-3862,PAYLOAD,2024-05-25 14:15:27,15.08831681,0.0001354,53.2177,110.9923,97.5702,262.5444,-5.754e-05,-1.203e-05,0.0,0 STARLINK-3862,1 52471U 22049W   24146.59406611 -.00001203  00000-0 -57540-4 0  9998,2 52471  53.2177 110.9923 0001354  97.5702 262.5444 15.08831681113658,6917.906,95.438,540.708,538.834,0.0
52471.0,STARLINK-3862,PAYLOAD,2024-05-26 04:33:54,15.08841193,0.0001236,53.2179,108.3163,87.9105,272.2028,4.3244e-05,4e-06,0.0,0 STARLINK-3862,1 52471U 22049W   24147.19021982  .00000400  00000-0  43244-4 0  9991,2 52471  53.2179 108.3163 0001236  87.9105 272.2028 15.08841193113909,6917.877,95.437,540.597,538.887,0.0
52471.0,STARLINK-3862,PAYLOAD,2024-05-26 20:27:46,15.08842783,0.0001519,53.2183,105.3451,104.5265,255.5895,-7.4845e-06,-4.07e-06,0.0,0 STARLINK-3862,1 52471U 22049W   24147.85262255 -.00000407  00000-0 -74845-5 0  9995,2 52471  53.2183 105.3451 0001519 104.5265 255.5895 15.08842783113843,6917.872,95.437,540.788,538.686,0.0
52471.0,STARLINK-3862,PAYLOAD,2024-05-27 04:24:42,15.0883422,0.0001343,53.2177,103.8554,74.8816,285.2325,6.0683e-05,6.78e-06,0.0,0 STARLINK-3862,1 52471U 22049W   24148.18382697  .00000678  00000-0  60683-4 0  9997,2 52471  53.2177 103.8554 0001343  74.8816 285.2325 15.08834220114058,6917.898,95.438,540.692,538.834,0.0
52471.0,STARLINK-3862,PAYLOAD,2024-05-27 06:00:04,15.08850859,0.0001013,53.2182,103.5584,114.2867,245.8231,0.00019263,2.78e-05,0.0,0 STARLINK-3862,1 52471U 22049W   24148.25005096  .00002780  00000-0  19263-3 0  9993,2 52471  53.2182 103.5584 0001013 114.2867 245.8231 15.08850859114068,6917.847,95.437,540.413,539.011,0.0
52471.0,STARLINK-3862,PAYLOAD,2024-05-27 13:56:59,15.08859561,0.0001277,53.2181,102.0763,181.882,178.2168,0.00018775,2.703e-05,0.0,0 STARLINK-3862,1 52471U 22049W   24148.58124207  .00002703  00000-0  18775-3 0  9997,2 52471  53.2181 102.0763 0001277 181.8820 178.2168 15.08859561113955,6917.821,95.436,540.569,538.802,0.0
52471.0,STARLINK-3862,PAYLOAD,2024-05-27 20:18:34,15.08836936,0.0001512,53.219,100.8817,94.2066,265.9098,3.7851e-05,3.14e-06,0.0,0 STARLINK-3862,1 52471U 22049W   24148.84622705  .00000314  00000-0  37851-4 0  9995,2 52471  53.2190 100.8817 0001512  94.2066 265.9098 15.08836936114152,6917.89,95.438,540.801,538.709,0.0
